COSMOS 2251 DEB         
1 38199U 93036BSP 17345.83327945  .00000122  00000-0  11915-3 0  9997
2 38199  73.9553 162.9454 0379937 305.1835  51.4237 13.61140039377162
